HAWK-C                  
1 43799U 18099AT  26068.67261865  .00009431  00000+0  35663-3 0  9994
2 43799  97.4027 122.6817 0040363 277.4052  82.2601 15.26407167398720
STARLINK-34913          
1 65369U 25190U   26068.55305506  .00026405  00000+0  90062-3 0  9993
2 65369  53.1587 168.8554 0000845  80.8012 279.3084 15.30195064 29731
